CTC2_L_00395016-03
1 44671U 23339ZI  26070.40847222  .00000000  00000+0  00000-0 0  9995
2 44671  45.0000 180.0000 0000000   0.0000   0.0000 12.77881384    12
CTC2_L_00395016-04
1 44672U 25391QY  26070.40847222  .00000000  00000+0  00000-0 0  9996
2 44672  45.0000 180.0000 0000000   0.0000  90.0000 12.77881384    12
CTC2_L_00395017-01
1 44673U 22252US  26070.40847222  .00000000  00000+0  00000-0 0  9990
2 44673  45.0000 192.0000 0000000   0.0000 192.0000 12.77881384    19
CTC2_L_00395017-02
1 44674U 24979PG  26070.40847222  .00000000  00000+0  00000-0 0  9999
2 44674  45.0000 192.0000 0000000   0.0000 282.0000 12.77881384    10
CTC2_L_00395017-03
1 44675U 24066BL  26070.40847222  .00000000  00000+0  00000-0 0  9997
2 44675  45.0000 192.0000 0000000   0.0000  12.0000 12.77881384    12
CTC2_L_00395017-04
1 44676U 24134OC  26070.40847222  .00000000  00000+0  00000-0 0  9994
2 44676  45.0000 192.0000 0000000   0.0000 102.0000 12.77881384    13
CTC2_L_00395018-01
1 44677U 25650Z   26070.40847222  .00000000  00000+0  00000-0 0  9999
2 44677  45.0000 204.0000 0000000   0.0000 204.0000 12.77881384    11
CTC2_L_00395018-02
1 44678U 22902CX  26070.40847222  .00000000  00000+0  00000-0 0  9997
2 44678  45.0000 204.0000 0000000   0.0000 294.0000 12.77881384    11
CTC2_L_00395018-03
1 44679U 26600SG  26070.40847222  .00000000  00000+0  00000-0 0  9997
2 44679  45.0000 204.0000 0000000   0.0000  24.0000 12.77881384    13
CTC2_L_00395018-04
1 44680U 23309NJ  26070.40847222  .00000000  00000+0  00000-0 0  9992
2 44680  45.0000 204.0000 0000000   0.0000 114.0000 12.77881384    15
CTC2_L_00395019-01
1 44681U 26576KG  26070.40847222  .00000000  00000+0  00000-0 0  9992
2 44681  45.0000 216.0000 0000000   0.0000 216.0000 12.77881384    12
CTC2_L_00395019-02
1 44682U 25749OK  26070.40847222  .00000000  00000+0  00000-0 0  9994
2 44682  45.0000 216.0000 0000000   0.0000 306.0000 12.77881384    13
CTC2_L_00395019-03
1 44683U 26589D   26070.40847222  .00000000  00000+0  00000-0 0  9998
2 44683  45.0000 216.0000 0000000   0.0000  36.0000 12.77881384    14
CTC2_L_00395019-04
1 44684U 23328DE  26070.40847222  .00000000  00000+0  00000-0 0  9997
2 44684  45.0000 216.0000 0000000   0.0000 126.0000 12.77881384    15
CTC2_L_00395020-01
1 44685U 26635BJ  26070.40847222  .00000000  00000+0  00000-0 0  9992
2 44685  45.0000 228.0000 0000000   0.0000 228.0000 12.77881384    12
CTC2_L_00395020-02
1 44686U 26099ZF  26070.40847222  .00000000  00000+0  00000-0 0  9997
2 44686  45.0000 228.0000 0000000   0.0000 318.0000 12.77881384    13
CTC2_L_00395020-03
1 44687U 23250RP  26070.40847222  .00000000  00000+0  00000-0 0  9994
2 44687  45.0000 228.0000 0000000   0.0000  48.0000 12.77881384    14
CTC2_L_00395020-04
1 44688U 24149FY  26070.40847222  .00000000  00000+0  00000-0 0  9993
2 44688  45.0000 228.0000 0000000   0.0000 138.0000 12.77881384    15
CTC2_L_00395021-01
1 44689U 25091ZE  26070.40847222  .00000000  00000+0  00000-0 0  9991
2 44689  45.0000 240.0000 0000000   0.0000 240.0000 12.77881384    14
CTC2_L_00395021-02
1 44690U 24400WF  26070.40847222  .00000000  00000+0  00000-0 0  9996
2 44690  45.0000 240.0000 0000000   0.0000 330.0000 12.77881384    16
CTC2_L_00395021-03
1 44691U 23587GZ  26070.40847222  .00000000  00000+0  00000-0 0  9992
2 44691  45.0000 240.0000 0000000   0.0000  60.0000 12.77881384    17
CTC2_L_00395021-04
1 44692U 24989AR  26070.40847222  .00000000  00000+0  00000-0 0  9990
2 44692  45.0000 240.0000 0000000   0.0000 150.0000 12.77881384    18
CTC2_L_00395022-01
1 44693U 25125PU  26070.40847222  .00000000  00000+0  00000-0 0  9994
2 44693  45.0000 252.0000 0000000   0.0000 252.0000 12.77881384    15
CTC2_L_00395022-02
1 44694U 23381EN  26070.40847222  .00000000  00000+0  00000-0 0  9997
2 44694  45.0000 252.0000 0000000   0.0000 342.0000 12.77881384    16
CTC2_L_00395022-03
1 44695U 22522KV  26070.40847222  .00000000  00000+0  00000-0 0  9994
2 44695  45.0000 252.0000 0000000   0.0000  72.0000 12.77881384    17
CTC2_L_00395022-04
1 44696U 23699RI  26070.40847222  .00000000  00000+0  00000-0 0  9991
2 44696  45.0000 252.0000 0000000   0.0000 162.0000 12.77881384    18
CTC2_L_00395023-01
1 44697U 26866W   26070.40847222  .00000000  00000+0  00000-0 0  9991
2 44697  45.0000 264.0000 0000000   0.0000 264.0000 12.77881384    15
CTC2_L_00395023-02
1 44698U 23373WE  26070.40847222  .00000000  00000+0  00000-0 0  9992
2 44698  45.0000 264.0000 0000000   0.0000 354.0000 12.77881384    16
CTC2_L_00395023-03
1 44699U 22104GN  26070.40847222  .00000000  00000+0  00000-0 0  9994
2 44699  45.0000 264.0000 0000000   0.0000  84.0000 12.77881384    17
CTC2_L_00395023-04
1 44700U 25748QH  26070.40847222  .00000000  00000+0  00000-0 0  9994
2 44700  45.0000 264.0000 0000000   0.0000 174.0000 12.77881384    10
CTC2_L_00395024-01
1 44701U 23314VK  26070.40847222  .00000000  00000+0  00000-0 0  9992
2 44701  45.0000 276.0000 0000000   0.0000 276.0000 12.77881384    17
CTC2_L_00395024-02
1 44702U 23782GL  26070.40847222  .00000000  00000+0  00000-0 0  9992
2 44702  45.0000 276.0000 0000000   0.0000   6.0000 12.77881384    19
CTC2_L_00395024-03
1 44703U 23473XE  26070.40847222  .00000000  00000+0  00000-0 0  9990
2 44703  45.0000 276.0000 0000000   0.0000  96.0000 12.77881384    19
CTC2_L_00395024-04
1 44704U 25648CS  26070.40847222  .00000000  00000+0  00000-0 0  9997
2 44704  45.0000 276.0000 0000000   0.0000 186.0000 12.77881384    10
CTC2_L_00395025-01
1 44705U 24706ZR  26070.40847222  .00000000  00000+0  00000-0 0  9992
2 44705  45.0000 288.0000 0000000   0.0000 288.0000 12.77881384    17
CTC2_L_00395025-02
1 44706U 24344PG  26070.40847222  .00000000  00000+0  00000-0 0  9991
2 44706  45.0000 288.0000 0000000   0.0000  18.0000 12.77881384    19
CTC2_L_00395025-03
1 44707U 25289OB  26070.40847222  .00000000  00000+0  00000-0 0  9991
2 44707  45.0000 288.0000 0000000   0.0000 108.0000 12.77881384    10
CTC2_L_00395025-04
1 44708U 23125BV  26070.40847222  .00000000  00000+0  00000-0 0  9999
2 44708  45.0000 288.0000 0000000   0.0000 198.0000 12.77881384    10
CTC2_L_00395026-01
1 44709U 22822E   26070.40847222  .00000000  00000+0  00000-0 0  9993
2 44709  45.0000 300.0000 0000000   0.0000 300.0000 12.77881384    11
CTC2_L_00395026-02
1 44710U 23831KY  26070.40847222  .00000000  00000+0  00000-0 0  9996
2 44710  45.0000 300.0000 0000000   0.0000  30.0000 12.77881384    13
CTC2_L_00395026-03
1 44711U 23292PT  26070.40847222  .00000000  00000+0  00000-0 0  9998
2 44711  45.0000 300.0000 0000000   0.0000 120.0000 12.77881384    14
CTC2_L_00395026-04
1 44712U 22590MX  26070.40847222  .00000000  00000+0  00000-0 0  9999
2 44712  45.0000 300.0000 0000000   0.0000 210.0000 12.77881384    15
CTC2_L_00395027-01
1 44713U 22104DL  26070.40847222  .00000000  00000+0  00000-0 0  9991
2 44713  45.0000 312.0000 0000000   0.0000 312.0000 12.77881384    12
CTC2_L_00395027-02
1 44714U 25913NB  26070.40847222  .00000000  00000+0  00000-0 0  9993
2 44714  45.0000 312.0000 0000000   0.0000  42.0000 12.77881384    13
CTC2_L_00395027-03
1 44715U 25627OX  26070.40847222  .00000000  00000+0  00000-0 0  9996
2 44715  45.0000 312.0000 0000000   0.0000 132.0000 12.77881384    14
CTC2_L_00395027-04
1 44716U 22836QO  26070.40847222  .00000000  00000+0  00000-0 0  9996
2 44716  45.0000 312.0000 0000000   0.0000 222.0000 12.77881384    15
CTC2_L_00395028-01
1 44717U 25964AQ  26070.40847222  .00000000  00000+0  00000-0 0  9992
2 44717  45.0000 324.0000 0000000   0.0000 324.0000 12.77881384    12
CTC2_L_00395028-02
1 44718U 24346CN  26070.40847222  .00000000  00000+0  00000-0 0  9996
2 44718  45.0000 324.0000 0000000   0.0000  54.0000 12.77881384    13
CTC2_L_00395028-03
1 44719U 22147OG  26070.40847222  .00000000  00000+0  00000-0 0  9994
2 44719  45.0000 324.0000 0000000   0.0000 144.0000 12.77881384    14
CTC2_L_00395028-04
1 44720U 22479TM  26070.40847222  .00000000  00000+0  00000-0 0  9994
2 44720  45.0000 324.0000 0000000   0.0000 234.0000 12.77881384    16
CTC2_L_00395029-01
1 44721U 24581YA  26070.40847222  .00000000  00000+0  00000-0 0  9991
2 44721  45.0000 336.0000 0000000   0.0000 336.0000 12.77881384    13
CTC2_L_00395029-02
1 44722U 23720TU  26070.40847222  .00000000  00000+0  00000-0 0  9996
2 44722  45.0000 336.0000 0000000   0.0000  66.0000 12.77881384    14
CTC2_L_00395029-03
1 44723U 22412DZ  26070.40847222  .00000000  00000+0  00000-0 0  9994
2 44723  45.0000 336.0000 0000000   0.0000 156.0000 12.77881384    15
CTC2_L_00395029-04
1 44724U 23033ON  26070.40847222  .00000000  00000+0  00000-0 0  9995
2 44724  45.0000 336.0000 0000000   0.0000 246.0000 12.77881384    16
CTC2_L_00395030-01
1 44725U 24307NS  26070.40847222  .00000000  00000+0  00000-0 0  9991
2 44725  45.0000 348.0000 0000000   0.0000 348.0000 12.77881384    13
CTC2_L_00395030-02
1 44726U 22994VP  26070.40847222  .00000000  00000+0  00000-0 0  9992
2 44726  45.0000 348.0000 0000000   0.0000  78.0000 12.77881384    14
CTC2_L_00395030-03
1 44727U 25785ZQ  26070.40847222  .00000000  00000+0  00000-0 0  9994
2 44727  45.0000 348.0000 0000000   0.0000 168.0000 12.77881384    15
CTC2_L_00395030-04
1 44728U 24739XY  26070.40847222  .00000000  00000+0  00000-0 0  9993
2 44728  45.0000 348.0000 0000000   0.0000 258.0000 12.77881384    16
